STARLINK-32330          
1 61850U 24202F   26068.50550716  .00000238  00000+0  18173-4 0  9997
2 61850  42.9996 238.6698 0001587 280.5602  79.5070 15.27571750 75311
TEVEL2-6                
1 63215U 25052F   26068.64958975  .00021046  00000+0  70909-3 0  9996
2 63215  97.4016 325.0381 0004769  95.6604 264.5181 15.30760889 54861
